COSMOS 1892             
1 18421U 87088A   20128.05072330  .00000650  00000-0  31110-4 0  9991
2 18421  82.4977 314.5213 0014325 204.4575 155.5980 15.17118070778271
SL-14 R/B               
1 18749U 88001B   20128.49104779  .00000066  00000-0  50941-5 0  9996
2 18749  82.5172  36.0324 0020273  74.4779  98.4048 14.83216786725795
COSMOS 1933             
1 18958U 88020A   20128.53678058 -.00000039  00000-0 -49323-5 0  9994
2 18958  82.5292 165.1111 0009961 294.3723  65.6463 15.03718311728931
SL-3 R/B                
1 19046U 88032B   20128.50924492 -.00000415  00000-0 -26200-4 0  9995
2 19046  97.4069 151.3882 0037138 349.4453  10.5989 15.02707875730812
SL-16 R/B               
1 19120U 88039B   20128.58796469  .00000026  00000-0  35454-4 0  9991
2 19120  71.0152 254.8699 0021671   4.0783 356.0515 14.19211865655855
COSMOS 1953             
1 19210U 88050A   20128.45082735  .00000312  00000-0  19440-4 0  9999
2 19210  82.5167  89.6292 0012025 257.5810 102.4072 15.05963465715494
SL-8 R/B                
1 19257U 88053B   20128.31845812 -.00000038  00000-0 -38759-5 0  9993
2 19257  74.0493  76.6193 0019317  64.9095  47.1194 14.37466108670097
COSMOS 1975             
1 19573U 88093A   20128.26328600  .00000146  00000-0  82492-5 0  9994
2 19573  82.5231  44.0773 0012976 307.0991  52.9049 15.04870670697310
SL-14 R/B               
1 19574U 88093B   20127.74632514  .00000063  00000-0  47617-5 0  9997
2 19574  82.5336 239.0325 0020310 237.2793 234.6461 14.83326903684685
SL-16 R/B               
1 19650U 88102B   20128.50590647 -.00000118  00000-0 -35522-4 0  9992
2 19650  70.9990 316.0119 0013790   7.8681 352.2655 14.15788305625089
INTERCOSMOS 24          
1 20261U 89080A   20128.07879926  .00000189  00000-0  50953-4 0  9991
2 20261  82.6071  47.0428 1202980 183.2585 176.0129 12.56108488398397
SL-14 R/B               
1 20262U 89080C   20128.40278356  .00000047  00000-0  86553-5 0  9998
2 20262  82.5904 100.2349 1237359  10.8092 351.7150 12.48939997393863
DELTA 2 R/B(1)          
1 20303U 89085B   20128.47665948  .00002107  00000-0  69539-4 0  9996
2 20303  35.6228 267.9226 0094985 172.4030 187.8158 15.27224872662330
DELTA 1 R/B             
1 20323U 89089B   20128.45912729  .00000016  00000-0  13218-4 0  9992
2 20323  97.0843 280.8493 0071695   1.3478 358.7899 14.48343859586937
ARIANE 40 R/B           
1 20443U 90005H   20128.18451871  .00000003  00000-0  15742-4 0  9991
2 20443  98.5788 190.0690 0011650 105.3740 254.8735 14.38086849586181
DELTA 2 R/B(1)          
1 20453U 90008B   20128.55546963  .00001327  00000-0  75965-4 0  9996
2 20453  35.6247 137.4763 0281400 323.3858  34.7919 14.85490372605110
COSMOS 2058             
1 20465U 90010A   20128.50227454  .00000208  00000-0  15309-4 0  9991
2 20465  82.4868 312.7531 0014951 344.7471  15.3299 14.98000155622199
SL-14 R/B               
1 20466U 90010B   20128.47635441  .00000056  00000-0  41065-5 0  9997
2 20466  82.5011 105.1256 0021990 110.6008 249.7568 14.81382915612668
SL-14 R/B               
1 20511U 90018B   20128.07616824  .00000056  00000-0  43302-5 0  9992
2 20511  82.5256  51.6899 0015975 252.3096 118.4852 14.80038811606994
HST                     
1 20580U 90037B   20128.50227185  .00000448  00000-0  16283-4 0  9997
2 20580  28.4690 230.5184 0002808  15.0015 100.0773 15.09382488449776
SL-16 R/B               
1 20625U 90046B   20128.35222000 -.00000063  00000-0 -78992-5 0  9992
2 20625  70.9990  94.4684 0016382 299.9936  59.9560 14.14658085546802
COSMOS 2084             
1 20663U 90055A   20128.43813619 -.00000048  00000-0  13314-4 0  9993
2 20663  62.7947 305.1279 0030659 243.1397 116.6562 14.92080229617236
SL-6 R/B(2)             
1 20666U 90055D   20128.56457052 -.00000072  00000-0  11130-4 0  9996
2 20666  62.7863 221.2303 0038561 331.4070  28.4908 14.92331024619194
SL-8 R/B                
1 20775U 90078B   20128.50175827  .00000964  00000-0  46194-4 0  9990
2 20775  82.9266 260.3903 0573089 321.7031  34.4722 14.34273417499873
SL-8 R/B                
1 21088U 91006B   20128.05472187  .00000091  00000-0  76584-4 0  9996
2 21088  82.9398 316.0029 0021302 245.8156 226.9300 13.77143601470512
OKEAN-3                 
1 21397U 91039A   20127.95955401  .00000214  00000-0  18099-4 0  9992
2 21397  82.5243 216.1283 0016501 311.8129  48.1681 14.92917558546070
COSMOS 2151             
1 21422U 91042A   20128.28366156  .00000113  00000-0  85630-5 0  9999
2 21422  82.4984 322.1456 0014568  16.8342 343.3358 14.92126585544745
SL-14 R/B               
1 21423U 91042B   20128.55345452  .00000061  00000-0  50700-5 0  9998
2 21423  82.4963  55.1297 0018548  37.3357 322.9141 14.79789312537614
ERS-1                   
1 21574U 91050A   20128.35691517  .00000008  00000-0  17166-4 0  9997
2 21574  98.5943  81.7096 0033957  50.7764 309.6428 14.37741390509214
ARIANE 40 R/B           
1 21610U 91050F   20128.08956015  .00000012  00000-0  17437-4 0  9991
2 21610  98.4670 197.7306 0003804  43.0002  17.5400 14.40901892511746
INTERCOSMOS 25          
1 21819U 91086A   20128.15534536 -.00000232  00000-0 -51203-4 0  9994
2 21819  82.5958 151.0684 1514928   0.0600   0.0401 12.05163142239319
SL-8 R/B                
1 21876U 92008B   20127.92020227  .00000038  00000-0  23496-4 0  9998
2 21876  82.9295  53.2913 0034199 332.0640  95.8636 13.75656452416392
SL-8 R/B                
1 21938U 92020B   20128.57589953  .00000112  00000-0  10058-3 0  9991
2 21938  82.9272 296.9119 0030333 126.2261 299.3818 13.75281790408054
COSMOS 2219             
1 22219U 92076A   20128.52973502  .00000309  00000-0  18824-3 0  9994
2 22219  71.0584 153.2000 0019483 221.3183 138.6466 14.13643229417033
SL-16 R/B               
1 22220U 92076B   20128.42192470  .00000242  00000-0  14579-3 0  9991
2 22220  71.0015 357.9586 0010854 108.2544  64.0214 14.16453699419862
COSMOS 2221             
1 22236U 92080A   20127.99851414  .00000165  00000-0  15194-4 0  9993
2 22236  82.5057 142.8302 0018336  98.5721 261.7575 14.87916750463113
SL-16 R/B               
1 22285U 92093B   20128.51244100 -.00000275  00000-0 -11726-3 0  9998
2 22285  71.0200 158.4081 0006196 301.8072  58.2447 14.15043458411541
COSMOS 2228             
1 22286U 92094A   20128.42738912  .00000139  00000-0  12307-4 0  9993
2 22286  82.5187  98.6059 0020128 214.0186 145.9743 14.88135441458341
SL-16 R/B               
1 22566U 93016B   20128.04169899 -.00000243  00000-0 -10098-3 0  9991
2 22566  71.0098  12.6801 0011823 318.6102  41.4123 14.14964484400477
COSMOS 2242             
1 22626U 93024A   20128.46841093  .00000162  00000-0  14877-4 0  9994
2 22626  82.5191 126.6787 0017965 213.2623 146.7467 14.87989849462767
SL-16 R/B               
1 22803U 93059B   20128.38268293 -.00000141  00000-0 -46195-4 0  9992
2 22803  70.9900 185.8189 0018831 224.2456 135.7162 14.16820128377744
ARIANE 40 R/B           
1 22830U 93061H   20128.55211572 -.00000015  00000-0  11280-4 0  9998
2 22830  98.7690 177.3557 0012094  83.6329 276.6230 14.31449053388973
COSMOS 2278             
1 23087U 94023A   20128.49498305 -.00000043  00000-0  23462-5 0  9993
2 23087  71.0518 313.2657 0007423  35.2258 324.9354 14.13798059343403
SL-16 R/B               
1 23088U 94023B   20128.39099941  .00000154  00000-0  10486-3 0  9998
2 23088  71.0002 227.3065 0005228 285.4964  74.5581 14.14679060344776
SL-16 R/B               
1 23343U 94074B   20128.11144081  .00000027  00000-0  11222-4 0  9993
2 23343  98.0032 181.4673 0005525 287.3350 124.1042 14.76821360372312
SL-16 R/B               
1 23405U 94077B   20128.49051666 -.00000159  00000-0 -57063-4 0  9993
2 23405  70.9801 156.5930 0003017 207.8533 152.2428 14.15218094314567
ERS-2                   
1 23560U 95021A   20128.36877445  .00000584  00000-0  28536-4 0  9995
2 23560  98.5361 276.2697 0002555 332.2681  27.8416 15.23138749335867
ARIANE 40+ R/B          
1 23561U 95021B   20128.55069797  .00000027  00000-0  23953-4 0  9990
2 23561  98.7282 167.1067 0007257  25.2667  96.1336 14.37966789312691
SL-16 R/B               
1 23705U 95058B   20127.95361513  .00000018  00000-0  33958-4 0  9990
2 23705  71.0231 336.0254 0010899 137.9712 222.2249 14.15138743266108
SL-16 R/B               
1 24298U 96051B   20128.08705224  .00000042  00000-0  49114-4 0  9996
2 24298  70.8446 357.7293 0012680  52.3547 307.8721 14.12497735220774
ORBVIEW 2 (SEASTAR)     
1 24883U 97037A   20127.94176666  .00000017  00000-0  21994-4 0  9995
2 24883  98.6052 241.4497 0001780 198.3659 161.7461 14.33552323202769
SL-16 R/B               
1 25400U 98043G   20128.37038978 -.00000031  00000-0  52976-5 0  9992
2 25400  98.6053  65.0613 0011062  94.1523 266.0921 14.25452688135166
SL-16 R/B               
1 25407U 98045B   20128.57315605  .00000008  00000-0  28131-4 0  9996
2 25407  71.0109 343.5227 0006565  23.8002 336.3423 14.15798315125298
ISS (ZARYA)             
1 25544U 98067A   20128.66871132  .00000764  00000-0  21750-4 0  9993
2 25544  51.6445 189.0145 0001094 262.4965 235.4816 15.49354040225736
SL-8 R/B                
1 25723U 99022C   20128.32314120  .00016492  00000-0  12099-3 0  9996
2 25723  48.4110 230.1347 0003819 156.5979 203.5148 15.73180327171180
CZ-4B R/B               
1 25732U 99025C   20128.11537708 -.00000021  00000-0  12223-4 0  9997
2 25732  98.9479 156.5567 0036746 329.8529  95.6640 14.17675751 86105
OKEAN-O                 
1 25860U 99039A   20128.51566091  .00000031  00000-0  12066-4 0  9990
2 25860  98.2168 146.7965 0001478  69.5898 290.5469 14.76658603119473
SL-16 R/B               
1 25861U 99039B   20128.04684312  .00000008  00000-0  86698-5 0  9993
2 25861  98.2080 129.3876 0014396 292.9449 103.5570 14.78575190121641
DELTA 2 R/B             
1 25876U 99041E   20128.44637441 -.00000141  00000-0  15366-4 0  9999
2 25876  51.7658 112.2134 0530621 224.5112 131.2020 14.04426089 62869
